{"type":"FeatureCollection","features":[{"type":"Feature","properties":{"name":"西宝客专","name_en":"Xi'an–Baoji Passenger Dedicated Line","from":"宝鸡南","to":"西安北","ref":"徐兰高速线西宝段"},"geometry":{"type":"MultiLineString","coordinates":[[[107.5946139,34.2779331],[107.5847342,34.2798259],[107.5588778,34.2847447],[107.5537041,34.2857457],[107.5502847,34.2864619],[107.5479593,34.2870354],[107.5461144,34.2874902],[107.5377579,34.2895697],[107.533167,34.2906646],[107.5301143,34.2912834],[107.5271774,34.2918132],[107.5242399,34.2922725],[107.5213535,34.2926726],[107.5190672,34.2929297],[107.5157475,34.2932132],[107.5068033,34.2939215],[107.4877981,34.2952897],[107.4836347,34.2956315],[107.479785,34.2958656],[107.4754045,34.2962641],[107.4720374,34.2966306],[107.4686936,34.2971506],[107.4653131,34.297789],[107.4619746,34.2985454],[107.4588704,34.2993887],[107.4557898,34.3003098],[107.4527189,34.3013827],[107.4497941,34.3026319],[107.447514,34.3036522],[107.4459501,34.3043496],[107.4440919,34.3052581],[107.442204,34.3062498],[107.4404195,34.3072418],[107.4386659,34.3082817],[107.4369534,34.3093797],[107.4352413,34.3104453],[107.428824,34.3145015],[107.4246564,34.3171462],[107.4222974,34.3185176],[107.4205531,34.319661],[107.4177552,34.3212903],[107.4154102,34.3224993],[107.4141512,34.3231242],[107.4124616,34.3239026],[107.4102314,34.3248831],[107.407913,34.3258318],[107.4051147,34.3268325]],[[107.3186365,34.3358242],[107.3163195,34.3359407],[107.3138804,34.3361007],[107.311453,34.3362136],[107.3088222,34.3363103]],[[108.4730333,34.252929],[108.4511346,34.2459951]],[[108.0410913,34.2565074],[108.0400031,34.2565543],[108.0362621,34.2567674],[108.0308115,34.2570779]],[[107.3088222,34.3363103],[107.3059133,34.3363392],[107.3048202,34.3363053]],[[108.8743383,34.3616645],[108.8716349,34.3609826],[108.8575362,34.3573768],[108.8436345,34.3538243],[108.8404206,34.3530167],[108.8374001,34.3522965],[108.8353793,34.3518594],[108.8333673,34.3514683],[108.8320718,34.3512457],[108.830855,34.3510031],[108.8296224,34.3508027],[108.8261505,34.3502991],[108.8228677,34.3498669],[108.8162364,34.3490733],[108.8016227,34.3473207],[108.7995526,34.3470711],[108.7968156,34.3467469],[108.7916886,34.3461281],[108.7783774,34.3445312],[108.7693496,34.3434481],[108.7619031,34.3425486],[108.7600152,34.3423522],[108.7579985,34.3422002],[108.7567983,34.3421522],[108.7559576,34.3421471],[108.7544271,34.3421573],[108.7526685,34.3422351],[108.7510488,34.342356],[108.7498419,34.3424865],[108.7486136,34.3426613],[108.747341,34.3428745],[108.746122,34.3431142],[108.7451724,34.3433276],[108.7442764,34.3435498],[108.7424599,34.3440354],[108.7391271,34.3450195],[108.7370654,34.3456276],[108.7357869,34.3459876],[108.7347182,34.3462913],[108.733628,34.3465685],[108.7326368,34.3468114],[108.7316026,34.3470366],[108.73051,34.3472505],[108.7292994,34.3474468],[108.7281531,34.3476031],[108.7270391,34.3477196],[108.7259857,34.3478017],[108.7248626,34.3478661],[108.7238387,34.3478938],[108.722686,34.3479128],[108.7215709,34.3479007],[108.7204612,34.3478708],[108.7197442,34.3478335],[108.7189569,34.3477732],[108.7184756,34.3477415],[108.7175973,34.3476566],[108.7165326,34.3475294],[108.7152897,34.3473456],[108.7141111,34.347144],[108.7127143,34.3468632],[108.7108356,34.3463896],[108.7091308,34.3459039],[108.7079423,34.3455546],[108.7067454,34.345148],[108.7063083,34.3450005],[108.7058193,34.3448419]],[[108.9236964,34.374282],[108.9265939,34.3750126],[108.9271526,34.3751536],[108.9341535,34.3769385]],[[108.9236717,34.3742234],[108.9216029,34.3736999],[108.9210486,34.3735577],[108.9177882,34.3727331],[108.9130556,34.3715209]],[[107.6164772,34.2737087],[107.6121889,34.274519],[107.610622,34.2748151]],[[108.4478664,34.2449602],[108.4433413,34.2435765],[108.4400991,34.2427181],[108.4389008,34.2424407],[108.437374,34.2420853],[108.4355199,34.2416857],[108.4323886,34.2411103],[108.4292694,34.2406336],[108.4269576,34.240339],[108.4249997,34.2401264],[108.423804,34.2400271],[108.4238027,34.240027],[108.4234549,34.2399981],[108.4214365,34.2398541],[108.4194182,34.2397456],[108.4171934,34.2396881],[108.414298,34.2396528],[108.4112938,34.2396698],[108.402058,34.2397473],[108.3800637,34.2399319],[108.3631981,34.2400734],[108.3470829,34.2402087],[108.3362475,34.2402996],[108.2342857,34.2411553],[108.2305452,34.2411637],[108.2265785,34.2412601],[108.2238134,34.2414009],[108.2213654,34.2415441],[108.1488063,34.2460201],[108.1366552,34.2468035],[108.1348012,34.2469629],[108.1329365,34.2471489],[108.1291963,34.247574],[108.0810446,34.2534899],[108.0779154,34.253872],[108.0747164,34.2542586],[108.071981,34.254567],[108.0700429,34.2547608],[108.0680078,34.2549331],[108.0663513,34.2550615],[108.0647746,34.2551496],[108.0639117,34.2551984]],[[108.0239746,34.2574402],[108.004612,34.2585113],[108.000527,34.2586922],[107.9965703,34.2588485],[107.9925749,34.2588434],[107.9886224,34.2587054],[107.984627,34.2584609],[107.9535137,34.2565336],[107.9478679,34.2562378],[107.9431889,34.2561342],[107.939733,34.256137],[107.9363298,34.2562237],[107.933083,34.2564125],[107.9297053,34.2567212],[107.9266731,34.2570613],[107.9241983,34.2573729],[107.9211513,34.2578408],[107.9182315,34.2583759],[107.9147302,34.2590999],[107.9123418,34.2596454],[107.9086783,34.2605759],[107.9010272,34.2627061],[107.8965777,34.2639239],[107.89386,34.2646177],[107.8910399,34.2652553],[107.8880351,34.2658432],[107.884938,34.2663489],[107.8829207,34.2666515],[107.8787048,34.2671165],[107.8746642,34.2673944],[107.8712798,34.2674963],[107.8680679,34.2675221],[107.8647841,34.2674175],[107.8611846,34.2672066],[107.8595329,34.2670579],[107.8565416,34.266704],[107.8548097,34.2664816],[107.851601,34.265996],[107.8489234,34.2655348],[107.8232529,34.2612103],[107.8152756,34.2598777],[107.8087213,34.2587903],[107.8023517,34.2577051],[107.7935647,34.2562506],[107.7915967,34.2559218],[107.7876188,34.2553087],[107.7847776,34.2549282],[107.7819578,34.2546717],[107.7790342,34.2545055],[107.7756814,34.254428],[107.772442,34.2544133],[107.7681629,34.2545356],[107.7637811,34.2549056],[107.7599642,34.255347],[107.7562363,34.2558975],[107.7521034,34.2565505],[107.7246299,34.2608529],[107.6961882,34.2652531],[107.6882377,34.266497],[107.6813745,34.2675875],[107.6792476,34.2679039],[107.6770778,34.2681778],[107.6741871,34.2684482],[107.6712919,34.2687186],[107.6323232,34.2714632],[107.6280316,34.2718858],[107.6248813,34.272273],[107.6228735,34.2725915],[107.6222671,34.2727114],[107.6164924,34.2737568]],[[108.6074601,34.3167256],[108.6056576,34.316143],[108.6015041,34.3148201],[108.5986656,34.3139379],[108.5966445,34.3133522],[108.5943298,34.312746],[108.5929417,34.3123924],[108.5907385,34.3118789],[108.5886967,34.3114692],[108.5865389,34.3110698],[108.5833807,34.3105462],[108.5794261,34.310086],[108.5739115,34.3095188],[108.5714309,34.3092685],[108.5668412,34.308739],[108.5652748,34.3085152],[108.5637083,34.3082737],[108.5621714,34.3079968],[108.5606453,34.3077021],[108.5593229,34.3074229],[108.558022,34.3071261],[108.5565495,34.3067738],[108.5551413,34.3063949],[108.5537761,34.306016],[108.5524216,34.3056194],[108.5495677,34.30468],[108.5469552,34.3037273],[108.5443643,34.3026948],[108.5429588,34.3020832],[108.5415855,34.3014451],[108.5401602,34.3007682],[108.5387456,34.3000647],[108.537824,34.2995805],[108.5369453,34.2991053],[108.5346278,34.2978068],[108.532938,34.2967654],[108.5318024,34.296033],[108.5306452,34.2952563],[108.5294678,34.2944475],[108.5283225,34.293621],[108.5267169,34.2924011],[108.5251167,34.291128],[108.5234645,34.2897054],[108.5223353,34.2886838],[108.5209807,34.2874184],[108.5201224,34.2865674],[108.5191408,34.2855613],[108.5178881,34.2842094],[108.5165817,34.2827689],[108.5145968,34.2804285],[108.5106685,34.275976],[108.5097547,34.2749478],[108.5088798,34.2739896],[108.5079835,34.2730492],[108.5061586,34.271257],[108.5048443,34.2700578],[108.5035301,34.268903],[108.5010087,34.2668105],[108.4988737,34.2652411],[108.496406,34.2635254],[108.4942382,34.2621845],[108.4923797,34.2610794],[108.4904354,34.2599921],[108.4877265,34.2585777],[108.4853983,34.2574826],[108.4821582,34.2560881],[108.4788376,34.25484],[108.4759462,34.2538668],[108.4730333,34.252929]],[[108.6748336,34.3360498],[108.6726296,34.3354261],[108.6682273,34.3341597],[108.6678261,34.3340443],[108.6669361,34.3337932],[108.6581216,34.3312659],[108.6569396,34.3309128],[108.6487992,34.3285573]],[[108.7058193,34.3448419],[108.700847,34.343293],[108.6957372,34.3418095],[108.6933838,34.3411401],[108.6866561,34.3392073],[108.6833488,34.3382976],[108.6801273,34.337441],[108.6775487,34.3367257],[108.6757625,34.3362477],[108.674857,34.3359976]],[[107.2489823,34.3344575],[107.2439665,34.3345029]],[[107.2998346,34.3360465],[107.2980054,34.3359028],[107.2888783,34.3351176],[107.2856537,34.3347619],[107.2840343,34.3346251],[107.2789286,34.3342506]],[[107.3500721,34.3315392],[107.3464546,34.3317412],[107.3436457,34.3319753],[107.3409291,34.3323255],[107.3370531,34.3329],[107.33311,34.333583],[107.3264834,34.3347678],[107.3220362,34.3354227],[107.3201294,34.33569],[107.3186365,34.3358242]],[[107.3667373,34.3315144],[107.3652889,34.3315127]],[[107.2648472,34.3342163],[107.2510126,34.3345038],[107.2489735,34.3345219]],[[107.2789286,34.3342506],[107.2773191,34.334196],[107.2753862,34.3341011],[107.272118,34.3340949],[107.2656504,34.334171],[107.2648472,34.3342163]],[[107.3048202,34.3363053],[107.3028306,34.3362148],[107.2999854,34.3360583],[107.2998346,34.3360465]],[[107.2344163,34.3347154],[107.232873,34.3347653],[107.2302437,34.3347756]],[[107.2351392,34.3347044],[107.2344163,34.3347154]],[[108.9130556,34.3715209],[108.8931106,34.3665017],[108.8912688,34.3660367],[108.8893824,34.3655472],[108.8857793,34.3646271],[108.8831656,34.3639555],[108.8797115,34.3630674],[108.8773452,34.3624598],[108.8743383,34.3616645]],[[108.9341741,34.3768955],[108.9281239,34.3753543],[108.925049,34.3745732],[108.9236717,34.3742234]],[[108.9130362,34.3715705],[108.9175521,34.3727217],[108.9194688,34.3732062],[108.9213412,34.3736823],[108.9231431,34.3741407],[108.9236964,34.374282]],[[107.605718,34.2758203],[107.6055291,34.2758566],[107.6042173,34.2761007],[107.6031403,34.2763012],[107.599943,34.2769091],[107.5990141,34.2770905],[107.598098,34.2772607],[107.5946139,34.2779331]],[[107.3509017,34.3315272],[107.3500721,34.3315392]],[[107.3517719,34.331521],[107.3509017,34.3315272]],[[107.3532471,34.3314988],[107.3517719,34.331521]],[[107.3652889,34.3315127],[107.364098,34.3315113],[107.3532471,34.3314988]],[[107.2439665,34.3345029],[107.2423217,34.3345382],[107.2400545,34.3345869],[107.2388394,34.3346173],[107.2374919,34.3346636]],[[108.0639117,34.2551984],[108.0618366,34.2553132]],[[108.0618366,34.2553132],[108.0615548,34.2553303]],[[108.0571706,34.2556022],[108.0555483,34.2556896],[108.0509043,34.2559419]],[[108.0456281,34.2562285],[108.0451254,34.2562521]],[[108.0239708,34.2573878],[108.0060083,34.2583633],[107.9994188,34.2586735],[107.9965462,34.2587808],[107.9945686,34.2587868],[107.9928003,34.2587928],[107.9886286,34.2586436],[107.9855396,34.2584587],[107.9809565,34.2581724],[107.9494937,34.2562277],[107.9461304,34.2561143],[107.9421607,34.2560606],[107.9386819,34.2560785],[107.9375352,34.2561274],[107.9337786,34.2563212],[107.9313085,34.2565168],[107.9272361,34.2569382],[107.9240983,34.2573244],[107.9210941,34.2577859],[107.9172584,34.2585032],[107.9136958,34.2592707],[107.9091986,34.2603793],[107.9047074,34.2616132],[107.9011879,34.2625847],[107.8981769,34.2634282],[107.8940583,34.2644953],[107.892318,34.2649003],[107.8907921,34.2652335],[107.8878729,34.2658071],[107.8852803,34.2662246],[107.8818303,34.2667054],[107.8789334,34.2670185],[107.8765372,34.2672154],[107.8715571,34.2674361],[107.8688001,34.2674361],[107.8648232,34.2673526],[107.8611207,34.2671199],[107.8583059,34.2668456],[107.8548631,34.266428],[107.8315507,34.262527],[107.8131317,34.2594013],[107.7900358,34.2556073],[107.7859218,34.2550108],[107.7828977,34.2546767],[107.7771237,34.2543546],[107.7732696,34.2543426],[107.7704837,34.2543963],[107.7681741,34.2544739],[107.7636271,34.2548736],[107.7590239,34.2554318],[107.733698,34.259373],[107.7068237,34.2635672],[107.6841097,34.2671196],[107.6785493,34.2679367],[107.6732372,34.2684675],[107.6678819,34.268897],[107.6581313,34.269599],[107.6546594,34.2698295],[107.6391531,34.2709508],[107.6333221,34.2713456],[107.6297445,34.2716409],[107.62706,34.271953],[107.6241,34.2723367],[107.6222942,34.2726331],[107.6164772,34.2737087]],[[107.3970229,34.3291446],[107.3951384,34.329629],[107.3935693,34.3299267],[107.391138,34.3303744],[107.3884491,34.3308507],[107.3859942,34.331128],[107.3827166,34.3314164],[107.3795021,34.3315862],[107.3763091,34.3315871],[107.3732285,34.3315971],[107.3673787,34.3315226],[107.3667373,34.3315144]],[[107.3998528,34.3284007],[107.3981771,34.3287988],[107.3970229,34.3291446]],[[107.4051147,34.3268325],[107.4028037,34.3275819],[107.4006748,34.3281877],[107.3998528,34.3284007]],[[108.6487992,34.3285573],[108.6464938,34.3278823],[108.6442719,34.3272923],[108.6314474,34.3241087],[108.6288783,34.3234196],[108.6277805,34.3231159],[108.6263948,34.3226997],[108.6178652,34.3200269],[108.6171125,34.3197826],[108.6156883,34.3193363],[108.6135435,34.3186457],[108.6074601,34.3167256]],[[108.6135597,34.3186043],[108.6106008,34.3176589],[108.6094289,34.3172837],[108.6074797,34.3166686]],[[108.0304281,34.2570997],[108.0239746,34.2574402]],[[108.0308115,34.2570779],[108.0304281,34.2570997]],[[107.6056904,34.2757572],[107.6037258,34.2761417],[107.5984698,34.2771441],[107.5945996,34.2778785]],[[107.610622,34.2748151],[107.6056904,34.2757572]],[[107.6106483,34.2748746],[107.6104215,34.2749181],[107.605718,34.2758203]],[[107.6164924,34.2737568],[107.6126594,34.2744881],[107.6106483,34.2748746]],[[107.2439609,34.3345517],[107.2411503,34.3346258],[107.2401022,34.3346535],[107.2398104,34.3346612],[107.2375455,34.3347167],[107.2362153,34.3347413],[107.23513,34.3347604]],[[107.2489735,34.3345219],[107.2439609,34.3345517]],[[107.2343992,34.3347695],[107.2328644,34.334814],[107.2302534,34.3348253]],[[107.23513,34.3347604],[107.2343992,34.3347695]],[[108.0615548,34.2553303],[108.0571706,34.2556022]],[[108.0451254,34.2562521],[108.0410913,34.2565074]],[[108.0573394,34.2555438],[108.0562058,34.2556039],[108.0553409,34.2556498],[108.0551358,34.2556608],[108.0543202,34.2557049],[108.0509,34.2558901]],[[108.0304212,34.25704],[108.0239708,34.2573878]],[[108.0308121,34.2570189],[108.0304212,34.25704]],[[108.04045,34.256494],[108.0370432,34.2566829],[108.0308121,34.2570189]],[[108.0615533,34.25529],[108.0575944,34.2555303],[108.0573394,34.2555438]],[[107.5945996,34.2778785],[107.5924327,34.278302],[107.5902133,34.2787165],[107.5877594,34.2791907],[107.5531294,34.285773],[107.5496998,34.2865278],[107.5463366,34.2873711],[107.5361717,34.2898653],[107.5329973,34.2905989],[107.5300985,34.2911724],[107.5271691,34.2917205],[107.5229025,34.2923783],[107.5190443,34.2928336],[107.5153595,34.2931794],[107.506806,34.293854],[107.4926692,34.2948659],[107.4812476,34.2957091],[107.4739087,34.2963331],[107.4694992,34.2969487],[107.4649877,34.2977751],[107.4612009,34.2986605],[107.4578632,34.2996049],[107.4526372,34.3013165],[107.4448798,34.304782],[107.4408072,34.3069404],[107.4377349,34.3087616],[107.428324,34.3147222],[107.4215772,34.3188952],[107.4186069,34.3206992],[107.4163409,34.3219131],[107.4136871,34.3232366],[107.4101759,34.3248045],[107.4073179,34.3259425],[107.4050724,34.3267601],[107.4028268,34.3275019],[107.4006422,34.3281423],[107.3998239,34.328331]],[[107.2998302,34.3359806],[107.2981413,34.3358555],[107.2888524,34.3350628],[107.2840456,34.3345562],[107.2789284,34.3341807],[107.2753557,34.3340258],[107.2661158,34.3341051],[107.2648348,34.3341641],[107.2517099,34.3344233],[107.2489823,34.3344575]],[[107.3186449,34.3357654],[107.3165944,34.3358865],[107.3138553,34.3360386],[107.311307,34.336167],[107.3088087,34.3362607]],[[108.0639047,34.2551541],[108.0633115,34.2551962],[108.0625013,34.2552426],[108.0618373,34.2552783]],[[108.0618373,34.2552783],[108.0615533,34.25529]],[[108.6074797,34.3166686],[108.605683,34.3160902],[108.6015186,34.314765],[108.5986879,34.3138826],[108.596681,34.3133082],[108.5943372,34.3126906],[108.5929394,34.3123427],[108.5907582,34.3118402],[108.5887095,34.3114336],[108.5833959,34.3105025],[108.5794267,34.3100463],[108.5720466,34.3092893],[108.5678104,34.3088081],[108.5652795,34.3084672],[108.5621903,34.3079558],[108.5589676,34.3072991],[108.5565218,34.3067225],[108.5537785,34.3059555],[108.551715,34.3053288],[108.5490567,34.3044465],[108.5470053,34.3036944],[108.5440618,34.3025113],[108.5429754,34.30204],[108.5426113,34.3018645],[108.5399955,34.3006412],[108.5383143,34.2997788],[108.5363783,34.2987259],[108.5346546,34.2977583],[108.533896,34.297287],[108.5329978,34.2967455],[108.5318325,34.2959934],[108.5307886,34.2952964],[108.5285248,34.293707],[108.5267162,34.2923281],[108.5251139,34.2910645],[108.52319,34.2893797],[108.5215878,34.2879055],[108.519239,34.2855988],[108.5171148,34.283277],[108.5147053,34.2804587],[108.5098986,34.2750074],[108.5069854,34.2719731],[108.5053953,34.2704936],[108.5032286,34.2685726],[108.5002062,34.2661651],[108.4974265,34.2641839],[108.4959092,34.2631606],[108.491764,34.2606727],[108.488432,34.258887],[108.4855674,34.2575075],[108.4822058,34.256048],[108.4788921,34.2548139],[108.4730507,34.2529022]],[[108.6488141,34.3284911],[108.6471776,34.3279976],[108.6457669,34.3276214],[108.6428236,34.3268759],[108.6400006,34.3261681],[108.6379026,34.3256433],[108.6344058,34.3247946],[108.6312161,34.3239917],[108.6290005,34.3233933],[108.6275116,34.3229784],[108.6256469,34.3223992],[108.6221688,34.3213173],[108.6211307,34.3209873],[108.6193224,34.3204081],[108.6171013,34.3197051],[108.6153571,34.3191674],[108.6135597,34.3186043]],[[108.674857,34.3359976],[108.6725732,34.3353692],[108.6690722,34.3343574],[108.6662757,34.3335493],[108.658123,34.3312085],[108.6560407,34.3306187],[108.6528767,34.3296925],[108.6488141,34.3284911]],[[108.6748336,34.3360498],[108.676192,34.3364349],[108.6779567,34.3369147],[108.6800281,34.3374481],[108.6850551,34.3388039],[108.6940372,34.3413665],[108.7058129,34.3448875],[108.7079479,34.3455926],[108.7106409,34.3463756],[108.7126965,34.3468965],[108.714126,34.3472074],[108.7161113,34.3475192],[108.7184078,34.3477847],[108.7203421,34.3479069],[108.7228428,34.3479701],[108.7253537,34.3478816],[108.7277932,34.3476751],[108.7293345,34.3474939],[108.7309931,34.3472032],[108.7334071,34.3466807],[108.7358058,34.346036],[108.742471,34.3440808],[108.7444307,34.3435583],[108.7452115,34.3433687],[108.7473499,34.3429178],[108.749228,34.3426144],[108.7510602,34.3423995],[108.7543469,34.3422141],[108.7575876,34.3422183],[108.762242,34.3426313],[108.7684071,34.3433813],[108.7915981,34.3461765],[108.8266722,34.3504151],[108.8310501,34.3511099],[108.8343457,34.3517111],[108.8371254,34.3522874],[108.8404209,34.353079],[108.8435283,34.3538406],[108.8494093,34.3553538],[108.8569897,34.3572878],[108.8647582,34.3592768],[108.871592,34.3610153],[108.8744546,34.361755]],[[108.9130362,34.3715705],[108.8930858,34.3665481],[108.8904625,34.365881],[108.88668,34.364908],[108.8744546,34.361755]],[[108.0451218,34.256205],[108.04045,34.256494]],[[108.0456239,34.2561759],[108.0451218,34.256205]],[[108.0509043,34.2559419],[108.0456281,34.2562285]],[[108.0509,34.2558901],[108.0456239,34.2561759]],[[107.2277228,34.3347988],[107.2252231,34.3348598]],[[107.2277237,34.3348501],[107.2254381,34.3349041],[107.2252152,34.3349098]],[[107.2302534,34.3348253],[107.2301142,34.3348268],[107.2277237,34.3348501]],[[107.2302437,34.3347756],[107.2277228,34.3347988]],[[108.4510034,34.2459536],[108.4478664,34.2449602]],[[108.4511346,34.2459951],[108.4510034,34.2459536]],[[108.4510089,34.2459008],[108.4478802,34.244907]],[[108.4511349,34.2459409],[108.4510089,34.2459008]],[[107.2374919,34.3346636],[107.2351392,34.3347044]],[[108.4730507,34.2529022],[108.4511349,34.2459409]],[[108.4478802,34.244907],[108.4429521,34.2433928],[108.4393217,34.2424561],[108.4353235,34.2415814],[108.4297274,34.2406094],[108.4254358,34.2400985],[108.423804,34.2399603],[108.4238027,34.2399602],[108.4212473,34.2397437],[108.4183977,34.2396373],[108.414345,34.2395225],[108.3894884,34.2397354],[108.3480061,34.2401421],[108.3138649,34.2404318],[108.2761851,34.2407635],[108.2312622,34.2410774],[108.22808,34.2411664],[108.2265174,34.2412111],[108.2192361,34.2416006],[108.1600706,34.2452576],[108.1417595,34.2463906],[108.1361127,34.24678],[108.1345919,34.2469192],[108.1291764,34.2475246],[108.0809035,34.2534228],[108.074682,34.2541983],[108.0700051,34.2547173],[108.0648157,34.2551056],[108.0639047,34.2551541]],[[107.3969875,34.329085],[107.3951296,34.329572],[107.3883928,34.3307798],[107.3847513,34.3311507],[107.3795199,34.3315414],[107.3667334,34.3314476],[107.3652899,34.3314416],[107.3532474,34.3314551],[107.3517726,34.3314752],[107.3500672,34.3314952],[107.3462024,34.3317073],[107.3435608,34.3319398],[107.3369641,34.3328576],[107.3264193,34.3347231],[107.3201474,34.335623],[107.3186449,34.3357654]],[[107.3998239,34.328331],[107.3969875,34.329085]],[[107.3048275,34.3362393],[107.2998302,34.3359806]],[[107.3088087,34.3362607],[107.3048275,34.3362393]]]}},{"type":"Feature","properties":{"role":"spine","name":"西宝客专正线里程"},"geometry":{"type":"LineString","coordinates":[[107.2278599659918,34.33479753765281],[107.2302437,34.3347756],[107.2328644,34.334814],[107.2343992,34.3347695],[107.2351392,34.3347044],[107.2374919,34.3346636],[107.2388394,34.3346173],[107.2400545,34.3345869],[107.2423217,34.3345382],[107.2439665,34.3345029],[107.2489735,34.3345219],[107.2517099,34.3344233],[107.2648348,34.3341641],[107.2661158,34.3341051],[107.2753557,34.3340258],[107.2789284,34.3341807],[107.2840456,34.3345562],[107.2888524,34.3350628],[107.2981413,34.3358555],[107.2998302,34.3359806],[107.2999854,34.3360583],[107.3028306,34.3362148],[107.3048202,34.3363053],[107.3088087,34.3362607],[107.311453,34.3362136],[107.3138804,34.3361007],[107.3163195,34.3359407],[107.3186365,34.3358242],[107.3201474,34.335623],[107.3264193,34.3347231],[107.3369641,34.3328576],[107.3435608,34.3319398],[107.3462024,34.3317073],[107.3500672,34.3314952],[107.3517726,34.3314752],[107.3532474,34.3314551],[107.3652899,34.3314416],[107.3667334,34.3314476],[107.3795199,34.3315414],[107.3847513,34.3311507],[107.3883928,34.3307798],[107.3951296,34.329572],[107.3969875,34.329085],[107.3981771,34.3287988],[107.3998528,34.3284007],[107.4006422,34.3281423],[107.4028268,34.3275019],[107.4050724,34.3267601],[107.4073179,34.3259425],[107.4101759,34.3248045],[107.4136871,34.3232366],[107.4163409,34.3219131],[107.4186069,34.3206992],[107.4215772,34.3188952],[107.428324,34.3147222],[107.4377349,34.3087616],[107.4408072,34.3069404],[107.4448798,34.304782],[107.4526372,34.3013165],[107.4578632,34.2996049],[107.4612009,34.2986605],[107.4649877,34.2977751],[107.4694992,34.2969487],[107.4739087,34.2963331],[107.4812476,34.2957091],[107.4926692,34.2948659],[107.506806,34.293854],[107.5153595,34.2931794],[107.5190443,34.2928336],[107.5229025,34.2923783],[107.5271691,34.2917205],[107.5300985,34.2911724],[107.5329973,34.2905989],[107.5361717,34.2898653],[107.5463366,34.2873711],[107.5496998,34.2865278],[107.5531294,34.285773],[107.5877594,34.2791907],[107.5902133,34.2787165],[107.5924327,34.278302],[107.5945996,34.2778785],[107.5984698,34.2771441],[107.6037258,34.2761417],[107.6056904,34.2757572],[107.6104215,34.2749181],[107.6106483,34.2748746],[107.6126594,34.2744881],[107.6164924,34.2737568],[107.6222671,34.2727114],[107.6228735,34.2725915],[107.6248813,34.272273],[107.6280316,34.2718858],[107.6323232,34.2714632],[107.6712919,34.2687186],[107.6741871,34.2684482],[107.6770778,34.2681778],[107.6792476,34.2679039],[107.6813745,34.2675875],[107.6882377,34.266497],[107.6961882,34.2652531],[107.7246299,34.2608529],[107.7521034,34.2565505],[107.7562363,34.2558975],[107.7599642,34.255347],[107.7637811,34.2549056],[107.7681629,34.2545356],[107.772442,34.2544133],[107.7756814,34.254428],[107.7790342,34.2545055],[107.7819578,34.2546717],[107.7847776,34.2549282],[107.7876188,34.2553087],[107.7915967,34.2559218],[107.7935647,34.2562506],[107.8023517,34.2577051],[107.8087213,34.2587903],[107.8152756,34.2598777],[107.8232529,34.2612103],[107.8489234,34.2655348],[107.851601,34.265996],[107.8548097,34.2664816],[107.8565416,34.266704],[107.8595329,34.2670579],[107.8611846,34.2672066],[107.8647841,34.2674175],[107.8680679,34.2675221],[107.8712798,34.2674963],[107.8746642,34.2673944],[107.8787048,34.2671165],[107.8829207,34.2666515],[107.884938,34.2663489],[107.8880351,34.2658432],[107.8910399,34.2652553],[107.89386,34.2646177],[107.8965777,34.2639239],[107.9010272,34.2627061],[107.9086783,34.2605759],[107.9123418,34.2596454],[107.9147302,34.2590999],[107.9182315,34.2583759],[107.9211513,34.2578408],[107.9241983,34.2573729],[107.9266731,34.2570613],[107.9297053,34.2567212],[107.933083,34.2564125],[107.9363298,34.2562237],[107.939733,34.256137],[107.9431889,34.2561342],[107.9478679,34.2562378],[107.9535137,34.2565336],[107.984627,34.2584609],[107.9886224,34.2587054],[107.9925749,34.2588434],[107.9965703,34.2588485],[108.000527,34.2586922],[108.004612,34.2585113],[108.0239746,34.2574402],[108.0304212,34.25704],[108.0308115,34.2570779],[108.0370432,34.2566829],[108.04045,34.256494],[108.0451218,34.256205],[108.0456239,34.2561759],[108.0509,34.2558901],[108.0555483,34.2556896],[108.0571706,34.2556022],[108.0575944,34.2555303],[108.0615533,34.25529],[108.0618366,34.2553132],[108.0625013,34.2552426],[108.0633115,34.2551962],[108.0639047,34.2551541],[108.0647746,34.2551496],[108.0663513,34.2550615],[108.0680078,34.2549331],[108.0700429,34.2547608],[108.071981,34.254567],[108.0747164,34.2542586],[108.0779154,34.253872],[108.0810446,34.2534899],[108.1291963,34.247574],[108.1329365,34.2471489],[108.1348012,34.2469629],[108.1366552,34.2468035],[108.1488063,34.2460201],[108.2213654,34.2415441],[108.2238134,34.2414009],[108.2265785,34.2412601],[108.2305452,34.2411637],[108.2342857,34.2411553],[108.3362475,34.2402996],[108.3470829,34.2402087],[108.3631981,34.2400734],[108.3800637,34.2399319],[108.402058,34.2397473],[108.4112938,34.2396698],[108.414298,34.2396528],[108.4171934,34.2396881],[108.4194182,34.2397456],[108.4214365,34.2398541],[108.4234549,34.2399981],[108.4238027,34.240027],[108.4249997,34.2401264],[108.4269576,34.240339],[108.4292694,34.2406336],[108.4323886,34.2411103],[108.4355199,34.2416857],[108.437374,34.2420853],[108.4389008,34.2424407],[108.4400991,34.2427181],[108.4433413,34.2435765],[108.4478664,34.2449602],[108.4510089,34.2459008],[108.4730333,34.252929],[108.4788921,34.2548139],[108.4822058,34.256048],[108.4855674,34.2575075],[108.488432,34.258887],[108.491764,34.2606727],[108.4959092,34.2631606],[108.4974265,34.2641839],[108.5002062,34.2661651],[108.5032286,34.2685726],[108.5053953,34.2704936],[108.5069854,34.2719731],[108.5098986,34.2750074],[108.5147053,34.2804587],[108.5171148,34.283277],[108.519239,34.2855988],[108.5215878,34.2879055],[108.52319,34.2893797],[108.5251139,34.2910645],[108.5267162,34.2923281],[108.5285248,34.293707],[108.5307886,34.2952964],[108.5318325,34.2959934],[108.5329978,34.2967455],[108.533896,34.297287],[108.5346546,34.2977583],[108.5363783,34.2987259],[108.5383143,34.2997788],[108.5399955,34.3006412],[108.5426113,34.3018645],[108.5429754,34.30204],[108.5440618,34.3025113],[108.5470053,34.3036944],[108.5490567,34.3044465],[108.551715,34.3053288],[108.5537785,34.3059555],[108.5565218,34.3067225],[108.5589676,34.3072991],[108.5621903,34.3079558],[108.5652795,34.3084672],[108.5678104,34.3088081],[108.5720466,34.3092893],[108.5794267,34.3100463],[108.5833959,34.3105025],[108.5887095,34.3114336],[108.5907582,34.3118402],[108.5929394,34.3123427],[108.5943372,34.3126906],[108.596681,34.3133082],[108.5986879,34.3138826],[108.6015186,34.314765],[108.605683,34.3160902],[108.6074797,34.3166686],[108.6094289,34.3172837],[108.6106008,34.3176589],[108.6135597,34.3186043],[108.6153571,34.3191674],[108.6171013,34.3197051],[108.6193224,34.3204081],[108.6211307,34.3209873],[108.6221688,34.3213173],[108.6256469,34.3223992],[108.6275116,34.3229784],[108.6290005,34.3233933],[108.6312161,34.3239917],[108.6344058,34.3247946],[108.6379026,34.3256433],[108.6400006,34.3261681],[108.6428236,34.3268759],[108.6457669,34.3276214],[108.6471776,34.3279976],[108.6488141,34.3284911],[108.6569396,34.3309128],[108.6581216,34.3312659],[108.6669361,34.3337932],[108.6678261,34.3340443],[108.6682273,34.3341597],[108.6726296,34.3354261],[108.6748336,34.3360498],[108.6757625,34.3362477],[108.6775487,34.3367257],[108.6801273,34.337441],[108.6833488,34.3382976],[108.6866561,34.3392073],[108.6933838,34.3411401],[108.6957372,34.3418095],[108.700847,34.343293],[108.7058193,34.3448419],[108.7063083,34.3450005],[108.7067454,34.345148],[108.7079423,34.3455546],[108.7091308,34.3459039],[108.7108356,34.3463896],[108.7127143,34.3468632],[108.7141111,34.347144],[108.7152897,34.3473456],[108.7165326,34.3475294],[108.7175973,34.3476566],[108.7184756,34.3477415],[108.7189569,34.3477732],[108.7197442,34.3478335],[108.7204612,34.3478708],[108.7215709,34.3479007],[108.722686,34.3479128],[108.7238387,34.3478938],[108.7248626,34.3478661],[108.7259857,34.3478017],[108.7270391,34.3477196],[108.7281531,34.3476031],[108.7292994,34.3474468],[108.73051,34.3472505],[108.7316026,34.3470366],[108.7326368,34.3468114],[108.733628,34.3465685],[108.7347182,34.3462913],[108.7357869,34.3459876],[108.7370654,34.3456276],[108.7391271,34.3450195],[108.7424599,34.3440354],[108.7442764,34.3435498],[108.7451724,34.3433276],[108.746122,34.3431142],[108.747341,34.3428745],[108.7486136,34.3426613],[108.7498419,34.3424865],[108.7510488,34.342356],[108.7526685,34.3422351],[108.7544271,34.3421573],[108.7559576,34.3421471],[108.7567983,34.3421522],[108.7579985,34.3422002],[108.7600152,34.3423522],[108.7619031,34.3425486],[108.7693496,34.3434481],[108.7783774,34.3445312],[108.7916886,34.3461281],[108.7968156,34.3467469],[108.7995526,34.3470711],[108.8016227,34.3473207],[108.8162364,34.3490733],[108.8228677,34.3498669],[108.8261505,34.3502991],[108.8296224,34.3508027],[108.830855,34.3510031],[108.8320718,34.3512457],[108.8333673,34.3514683],[108.8353793,34.3518594],[108.8374001,34.3522965],[108.8404206,34.3530167],[108.8436345,34.3538243],[108.8575362,34.3573768],[108.8716349,34.3609826],[108.8743383,34.3616645],[108.88668,34.364908],[108.8904625,34.365881],[108.8930858,34.3665481],[108.9130362,34.3715705],[108.9177882,34.3727331],[108.9210486,34.3735577],[108.9216029,34.3736999],[108.9236717,34.3742234],[108.9265939,34.3750126],[108.9271526,34.3751536],[108.93415350000001,34.3769385]]}},{"type":"Feature","properties":{"name":"宝鸡南","order":1,"type":"station","osmId":7276282773,"km":0},"geometry":{"type":"Point","coordinates":[107.2278714,34.3356447]}},{"type":"Feature","properties":{"name":"岐山","order":2,"type":"station","osmId":2820611675,"km":36.3},"geometry":{"type":"Point","coordinates":[107.6083301,34.2756763]}},{"type":"Feature","properties":{"name":"杨陵南","order":3,"type":"station","osmId":2691462623,"km":77.2},"geometry":{"type":"Point","coordinates":[108.048322,34.2556034]}},{"type":"Feature","properties":{"name":"咸阳西","order":4,"type":"station","osmId":2726644052,"km":136.7,"formerName":"咸阳秦都"},"geometry":{"type":"Point","coordinates":[108.6626848,34.3322614]}},{"type":"Feature","properties":{"name":"西安北","order":5,"type":"station","osmId":4185074601,"km":162.5},"geometry":{"type":"Point","coordinates":[108.9340253,34.3776675]}}]}